NORAD_CAT_ID,OBJECT_NAME,OBJECT_TYPE,EPOCH,MEAN_MOTION,ECCENTRICITY,INCLINATION,RA_OF_ASC_NODE,ARG_OF_PERICENTER,MEAN_ANOMALY,BSTAR,MEAN_MOTION_DOT,MEAN_MOTION_DDOT,TLE_LINE0,TLE_LINE1,TLE_LINE2,SEMIMAJOR_AXIS,PERIOD,APOGEE,PERIGEE,DECAYED
52101.0,STARLINK-3703,PAYLOAD,2023-05-02 21:33:27,15.08839258,0.0001488,53.218,85.9123,80.3206,279.7954,7.054e-05,8.35e-06,0.0,0 STARLINK-3703,1 52101U 22029P   23122.89823900  .00000835  00000-0  70540-4 0  9999,2 52101  53.2180  85.9123 0001488  80.3206 279.7954 15.08839258 63379,6917.883,95.438,540.777,538.718,0.0
52101.0,STARLINK-3703,PAYLOAD,2023-05-03 03:55:00,15.08840709,0.000142,53.2185,84.721,92.8537,267.2617,3.9787e-06,-2.25e-06,0.0,0 STARLINK-3703,1 52101U 22029P   23123.16319974 -.00000225  00000-0  39787-5 0  9994,2 52101  53.2185  84.7210 0001420  92.8537 267.2617 15.08840709 63415,6917.878,95.438,540.726,538.761,0.0
52101.0,STARLINK-3703,PAYLOAD,2023-05-03 07:05:46,15.08843681,0.0001485,53.2186,84.1261,94.2392,265.877,3.856e-05,3.26e-06,0.0,0 STARLINK-3703,1 52101U 22029P   23123.29567673  .00000326  00000-0  38560-4 0  9997,2 52101  53.2186  84.1261 0001485  94.2392 265.8770 15.08843681 63430,6917.869,95.437,540.761,538.707,0.0
52101.0,STARLINK-3703,PAYLOAD,2023-05-04 06:56:33,15.08847919,0.0001333,53.2185,79.6639,98.8318,261.2825,3.3287e-05,2.42e-06,0.0,0 STARLINK-3703,1 52101U 22029P   23124.28927234  .00000242  00000-0  33287-4 0  9998,2 52101  53.2185  79.6639 0001333  98.8318 261.2825 15.08847919 63582,6917.856,95.437,540.643,538.799,0.0
52101.0,STARLINK-3703,PAYLOAD,2023-05-04 21:15:01,15.08841366,0.0001332,53.2182,76.9872,93.7034,266.411,5.2438e-05,5.47e-06,0.0,0 STARLINK-3703,1 52101U 22029P   23124.88543605  .00000547  00000-0  52438-4 0  9997,2 52101  53.2182  76.9872 0001332  93.7034 266.4110 15.08841366 63670,6917.876,95.437,540.663,538.82,0.0
52101.0,STARLINK-3703,PAYLOAD,2023-05-05 21:05:49,15.08834915,0.0001052,53.2169,72.5268,98.9636,261.1475,-1.1632e-05,-4.73e-06,0.0,0 STARLINK-3703,1 52101U 22029P   23125.87904383 -.00000473  00000-0 -11632-4 0  9992,2 52101  53.2169  72.5268 0001052  98.9636 261.1475 15.08834915 63825,6917.896,95.438,540.489,539.033,0.0
52101.0,STARLINK-3703,PAYLOAD,2023-05-06 03:27:21,15.08841943,0.0001079,53.2167,71.338,96.7806,263.3309,5.3633e-05,5.66e-06,0.0,0 STARLINK-3703,1 52101U 22029P   23126.14399895  .00000566  00000-0  53633-4 0  9997,2 52101  53.2167  71.3380 0001079  96.7806 263.3309 15.08841943 63862,6917.874,95.437,540.486,538.993,0.0
52101.0,STARLINK-3703,PAYLOAD,2023-05-06 06:38:07,15.08843785,0.0001091,53.2167,70.7429,96.8051,263.3066,6.5132e-05,7.49e-06,0.0,0 STARLINK-3703,1 52101U 22029P   23126.27647748  .00000749  00000-0  65132-4 0  9994,2 52101  53.2167  70.7429 0001091  96.8051 263.3066 15.08843785 63884,6917.869,95.437,540.489,538.979,0.0
52101.0,STARLINK-3703,PAYLOAD,2023-05-07 03:18:08,15.08847967,0.0001,53.2166,66.8775,100.98,259.1304,0.00012201,1.655e-05,0.0,0 STARLINK-3703,1 52101U 22029P   23127.13759429  .00001655  00000-0  12201-3 0  9995,2 52101  53.2166  66.8775 0001000 100.9800 259.1304 15.08847967 64012,6917.856,95.437,540.413,539.029,0.0
52101.0,STARLINK-3703,PAYLOAD,2023-05-08 03:08:56,15.0883114,0.0001058,53.2175,62.4178,115.138,244.9722,1.5267e-05,-4.5e-07,0.0,0 STARLINK-3703,1 52101U 22029P   23128.13121269 -.00000045  00000-0  15267-4 0  9990,2 52101  53.2175  62.4178 0001058 115.1380 244.9722 15.08831140 64163,6917.907,95.438,540.504,539.041,0.0
52101.0,STARLINK-3703,PAYLOAD,2023-05-08 12:41:15,15.0883666,9.93e-05,53.2179,60.633,96.874,263.2365,3.9352e-05,3.39e-06,0.0,0 STARLINK-3703,1 52101U 22029P   23128.52865089  .00000339  00000-0  39352-4 0  9994,2 52101  53.2179  60.6330 0000993  96.8740 263.2365 15.08836660 64225,6917.891,95.438,540.443,539.069,0.0
52101.0,STARLINK-3703,PAYLOAD,2023-05-09 02:59:42,15.08853108,0.0001112,53.218,57.9584,86.6014,273.5105,0.00026177,3.882e-05,0.0,0 STARLINK-3703,1 52101U 22029P   23129.12480281  .00003882  00000-0  26177-3 0  9994,2 52101  53.2180  57.9584 0001112  86.6014 273.5105 15.08853108 64314,6917.84,95.437,540.475,538.936,0.0
52101.0,STARLINK-3703,PAYLOAD,2023-05-10 01:15:07,15.08841352,0.0001261,53.2185,53.7934,91.9175,268.1961,0.00021508,3.137e-05,0.0,0 STARLINK-3703,1 52101U 22029P   23130.05217140  .00003137  00000-0  21508-3 0  9996,2 52101  53.2185  53.7934 0001261  91.9175 268.1961 15.08841352 64457,6917.876,95.437,540.614,538.869,0.0
52101.0,STARLINK-3703,PAYLOAD,2023-05-11 01:05:53,15.08857887,0.0001376,53.2186,49.3333,93.4292,266.6857,0.00026325,3.906e-05,0.0,0 STARLINK-3703,1 52101U 22029P   23131.04576138  .00003906  00000-0  26325-3 0  9997,2 52101  53.2186  49.3333 0001376  93.4292 266.6857 15.08857887 64600,6917.826,95.436,540.643,538.739,0.0
52101.0,STARLINK-3703,PAYLOAD,2023-05-12 00:56:41,15.0883711,0.0001197,53.217,44.8762,71.5314,288.5809,3.7476e-05,3.09e-06,0.0,0 STARLINK-3703,1 52101U 22029P   23132.03937338  .00000309  00000-0  37476-4 0  9994,2 52101  53.2170  44.8762 0001197  71.5314 288.5809 15.08837110 64755,6917.889,95.438,540.582,538.926,0.0
52101.0,STARLINK-3703,PAYLOAD,2023-05-13 00:47:28,15.08859102,0.0001108,53.2178,40.4141,79.9666,280.1451,0.00046006,7.045e-05,0.0,0 STARLINK-3703,1 52101U 22029P   23133.03296431  .00007045  00000-0  46006-3 0  9999,2 52101  53.2178  40.4141 0001108  79.9666 280.1451 15.08859102 64903,6917.822,95.436,540.453,538.921,0.0
52101.0,STARLINK-3703,PAYLOAD,2023-05-13 21:27:29,15.08837543,0.000111,53.218,36.5488,74.6265,285.4849,4.2275e-05,3.85e-06,0.0,0 STARLINK-3703,1 52101U 22029P   23133.89409448  .00000385  00000-0  42275-4 0  9992,2 52101  53.2180  36.5488 0001110  74.6265 285.4849 15.08837543 65035,6917.888,95.438,540.521,538.985,0.0
52101.0,STARLINK-3703,PAYLOAD,2023-05-14 00:38:16,15.08839552,0.0001144,53.2179,35.9539,67.3981,292.7132,8.2456e-05,1.025e-05,0.0,0 STARLINK-3703,1 52101U 22029P   23134.02657420  .00001025  00000-0  82456-4 0  9990,2 52101  53.2179  35.9539 0001144  67.3981 292.7132 15.08839552 65054,6917.882,95.438,540.538,538.955,0.0
52101.0,STARLINK-3703,PAYLOAD,2023-05-14 21:18:16,15.08844215,0.0001175,53.2184,32.0896,97.28,262.8326,-2.7168e-05,-7.2e-06,0.0,0 STARLINK-3703,1 52101U 22029P   23134.88769127 -.00000720  00000-0 -27168-4 0  9994,2 52101  53.2184  32.0896 0001175  97.2800 262.8326 15.08844215 65189,6917.868,95.437,540.545,538.92,0.0
52101.0,STARLINK-3703,PAYLOAD,2023-05-15 02:04:25,15.08849741,0.0001247,53.2187,31.1985,91.656,268.4575,0.00017291,2.466e-05,0.0,0 STARLINK-3703,1 52101U 22029P   23135.08640975  .00002466  00000-0  17291-3 0  9998,2 52101  53.2187  31.1985 0001247  91.6560 268.4575 15.08849741 65213,6917.851,95.437,540.578,538.853,0.0
52101.0,STARLINK-3703,PAYLOAD,2023-05-15 10:01:21,15.08839623,0.0001339,53.2191,29.7122,98.8482,261.2661,2.8441e-05,1.65e-06,0.0,0 STARLINK-3703,1 52101U 22029P   23135.41761375  .00000165  00000-0  28441-4 0  9997,2 52101  53.2191  29.7122 0001339  98.8482 261.2661 15.08839623 65268,6917.882,95.438,540.673,538.82,0.0
52101.0,STARLINK-3703,PAYLOAD,2023-05-16 01:55:13,15.08841655,0.0001288,53.2189,26.7357,92.9422,267.1717,8.0275e-05,9.9e-06,0.0,0 STARLINK-3703,1 52101U 22029P   23136.08001459  .00000990  00000-0  80275-4 0  9990,2 52101  53.2189  26.7357 0001288  92.9422 267.1717 15.08841655 65360,6917.875,95.437,540.631,538.849,0.0
52101.0,STARLINK-3703,PAYLOAD,2023-05-16 19:24:27,15.0883893,0.0001191,53.2184,23.4654,102.9423,257.1703,2.0728e-07,-2.85e-06,0.0,0 STARLINK-3703,1 52101U 22029P   23136.80865666 -.00000285  00000-0  20728-6 0  9995,2 52101  53.2184  23.4654 0001191 102.9423 257.1703 15.08838930 65473,6917.884,95.438,540.573,538.925,0.0
52101.0,STARLINK-3703,PAYLOAD,2023-05-16 22:35:14,15.08839596,0.0001181,53.2182,22.8706,98.8595,261.2531,3.2863e-05,2.35e-06,0.0,0 STARLINK-3703,1 52101U 22029P   23136.94113649  .00000235  00000-0  32863-4 0  9992,2 52101  53.2182  22.8706 0001181  98.8595 261.2531 15.08839596 65490,6917.882,95.438,540.564,538.93,0.0
52101.0,STARLINK-3703,PAYLOAD,2023-05-17 20:50:38,15.08834309,0.0001233,53.2186,18.7067,93.479,266.6343,3.1262e-05,2.1e-06,0.0,0 STARLINK-3703,1 52101U 22029P   23137.86850169  .00000210  00000-0  31262-4 0  9994,2 52101  53.2186  18.7067 0001233  93.4790 266.6343 15.08834309 65637,6917.898,95.438,540.616,538.91,0.0
52101.0,STARLINK-3703,PAYLOAD,2023-05-18 01:36:47,15.08842589,0.000115,53.219,17.8148,94.649,265.4633,6.5851e-05,7.6e-06,0.0,0 STARLINK-3703,1 52101U 22029P   23138.06721769  .00000760  00000-0  65851-4 0  9991,2 52101  53.2190  17.8148 0001150  94.6490 265.4633 15.08842589 65661,6917.872,95.437,540.533,538.942,0.0
52101.0,STARLINK-3703,PAYLOAD,2023-05-18 22:16:47,15.08846197,0.0001158,53.2198,13.9485,96.3854,263.727,0.00016204,2.292e-05,0.0,0 STARLINK-3703,1 52101U 22029P   23138.92833196  .00002292  00000-0  16204-3 0  9993,2 52101  53.2198  13.9485 0001158  96.3854 263.7270 15.08846197 65792,6917.861,95.437,540.528,538.925,0.0
52101.0,STARLINK-3703,PAYLOAD,2023-05-19 22:07:35,15.08839128,8.51e-05,53.2205,9.4904,90.113,269.996,4.0866e-05,3.63e-06,0.0,0 STARLINK-3703,1 52101U 22029P   23139.92194006  .00000363  00000-0  40866-4 0  9993,2 52101  53.2205   9.4904 0000851  90.1130 269.9960 15.08839128 65942,6917.883,95.438,540.337,539.159,0.0
52101.0,STARLINK-3703,PAYLOAD,2023-05-20 01:18:21,15.08844768,0.0001084,53.2194,8.8938,92.6257,267.4859,9.5527e-05,1.233e-05,0.0,0 STARLINK-3703,1 52101U 22029P   23140.05441540  .00001233  00000-0  95527-4 0  9998,2 52101  53.2194   8.8938 0001084  92.6257 267.4859 15.08844768 65963,6917.866,95.437,540.481,538.981,0.0
52101.0,STARLINK-3703,PAYLOAD,2023-05-20 21:58:21,15.08859408,0.0001222,53.2175,5.03,103.0263,257.0865,0.0002207,3.228e-05,0.0,0 STARLINK-3703,1 52101U 22029P   23140.91552475  .00003228  00000-0  22070-3 0  9991,2 52101  53.2175   5.0300 0001222 103.0263 257.0865 15.08859408 66096,6917.821,95.436,540.531,538.841,0.0
